IRIDIUM 33 DEB          
1 35488U 97051QJ  26160.89057492  .00008400  00000+0  92776-3 0  9994
2 35488  86.3256 217.9922 0027563 122.9918 237.3962 14.87037879909258
IRIDIUM 33 DEB          
1 35616U 97051QN  26157.57445044  .00017002  00000+0  18990-2 0  9995
2 35616  86.3521 265.1235 0006287 273.4315  86.6191 14.86872996901832
IRIDIUM 33 DEB          
1 35618U 97051QQ  26155.06895101  .00002176  00000+0  51949-3 0  9990
2 35618  86.3376 277.6487 0029801 153.2502 207.0249 14.53004714679103
IRIDIUM 33 DEB          
1 35620U 97051QS  26161.20225451  .00008585  00000+0  23377-2 0  9994
2 35620  86.3898 141.5440 0136435  29.8411 331.0478 14.41934029625495
IRIDIUM 33 DEB          
1 35622U 97051QU  26161.29035038  .00085465  00000+0  34621-2 0  9991
2 35622  86.1886 173.6497 0000949 310.6618  62.5088 15.24309876900778
IRIDIUM 33 DEB          
1 35625U 97051QX  26158.19250094  .00003287  00000+0  11537-2 0  9993
2 35625  86.1884 305.5816 0102770 350.7016 129.1405 14.31825019685640
IRIDIUM 33 DEB          
1 35628U 97051RA  26160.09900028  .00005560  00000+0  91457-3 0  9993
2 35628  86.3534 289.3255 0013229  82.4113 277.8605 14.70373278890650
IRIDIUM 33 DEB          
1 35631U 97051RD  26159.66207513  .00000939  00000+0  24836-3 0  9999
2 35631  86.3653 304.3436 0014872 244.5491 133.3292 14.47797073897719
IRIDIUM 33 DEB          
1 35680U 97051RJ  26160.65849522  .00002569  00000+0  10053-2 0  9992
2 35680  86.0960 302.1599 0150207  70.3077 308.0449 14.23139343632441
IRIDIUM 33 DEB          
1 35744U 97051RX  26160.54249083  .00004454  00000+0  68107-3 0  9996
2 35744  86.3279 244.4470 0017588 302.6284  57.3236 14.73466128899621
IRIDIUM 33 DEB          
1 35797U 97051SF  26159.53752888  .00011556  00000+0  12546-2 0  9999
2 35797  86.3337 247.8839 0008847 241.0061 119.0278 14.88014917899800
IRIDIUM 33 DEB          
1 35806U 97051SQ  26160.66743860  .00004282  00000+0  90186-3 0  9991
2 35806  86.3420 301.7055 0013300 172.2336 187.9083 14.59247438889322
IRIDIUM 33 DEB          
1 35809U 97051ST  26160.54718357  .00007628  00000+0  10128-2 0  9998
2 35809  86.3249 253.6131 0010030 358.0273   2.0907 14.79652718894483
IRIDIUM 33 DEB          
1 35846U 97051SW  26161.23317354  .00001309  00000+0  37821-3 0  9998
2 35846  86.3745 342.2124 0015961 305.3859  54.5850 14.43843533739187
IRIDIUM 33 DEB          
1 35848U 97051SY  26161.11468371  .00010982  00000+0  13449-2 0  9999
2 35848  86.3858 295.1317 0005365 299.8884  60.1805 14.83084629693455
IRIDIUM 33 DEB          
1 35850U 97051TA  26158.60641635  .00009712  00000+0  11870-2 0  9993
2 35850  86.3464 263.4528 0006615 303.0538  57.0049 14.83155701739755
IRIDIUM 33 DEB          
1 35915U 97051TY  26160.56900217  .00010450  00000+0  11975-2 0  9994
2 35915  86.3408 260.8472 0007760 289.1850  70.8534 14.85812628107376
IRIDIUM 33 DEB          
1 35918U 97051UB  26160.83766296  .00002761  00000+0  66633-3 0  9992
2 35918  86.4025 358.8494 0023623 293.7014 126.6702 14.52709547878063
IRIDIUM 33 DEB          
1 35929U 97051UN  26160.43951457  .00037416  00000+0  18578-2 0  9994
2 35929  86.3409 227.0479 0014131  95.0008 265.2847 15.17439046904763
IRIDIUM 33 DEB          
1 36011U 97051US  26157.21382911  .00001483  00000+0  44650-3 0  9998
2 36011  86.3394 320.0410 0018578  10.0193 163.8896 14.41897046670681
IRIDIUM 33 DEB          
1 36012U 97051UT  26158.96613493  .00003502  00000+0  12481-2 0  9994
2 36012  86.4390 235.8973 0220612  57.6754 304.5588 14.21267855680006
IRIDIUM 33 DEB          
1 36028U 97051VK  26160.92315217  .00023404  00000+0  16415-2 0  9997
2 36028  86.3235 221.7383 0017354 117.3716 242.9287 15.04947617898115
IRIDIUM 33 DEB          
1 36080U 97051VM  26157.10798166  .00002202  00000+0  59529-3 0  9996
2 36080  86.3103 291.5097 0015851 295.6937  64.2629 14.47346085499502
IRIDIUM 33 DEB          
1 36083U 97051VQ  26157.71597404  .00001599  00000+0  46173-3 0  9997
2 36083  86.3418 318.3694 0026361   9.5658 350.6039 14.43876596879886
IRIDIUM 33 DEB          
1 36390U 97051VU  26159.44324616  .00003848  00000+0  55314-3 0  9999
2 36390  86.2899 217.7591 0026318 271.4904  88.3300 14.75949767688816
IRIDIUM 33 DEB          
1 36483U 97051VZ  26160.76020892  .00001358  00000+0  37222-3 0  9990
2 36483  86.3791 335.8369 0007008 250.6760 109.3685 14.46461836677339
IRIDIUM 33 DEB          
1 36490U 97051WG  26160.63964344  .00010143  00000+0  13157-2 0  9995
2 36490  86.3609 289.4366 0004570 138.5446 221.6123 14.80679609891286
IRIDIUM 33 DEB          
1 36493U 97051WK  26161.09830095  .00005671  00000+0  99105-3 0  9992
2 36493  86.3551 291.8136 0012433  98.1208 262.1418 14.67716627771473
IRIDIUM 33 DEB          
1 36497U 97051WP  26154.31562031  .00007189  00000+0  12910-2 0  9999
2 36497  86.1563 173.1987 0042537 249.9668 109.6964 14.65986828681783
IRIDIUM 33 DEB          
1 37136U 97051XG  26151.57186540  .00002141  00000+0  82395-3 0  9990
2 37136  86.1698 262.7651 0077650 160.1333 200.2913 14.28277066669226
IRIDIUM 33 DEB          
1 37548U 97051XH  26160.72279519  .00002676  00000+0  64671-3 0  9993
2 37548  86.3510 325.4021 0022922 316.1346  43.8039 14.52632513681295
IRIDIUM 33 DEB          
1 37550U 97051XK  26160.66386565  .00005828  00000+0  97016-3 0  9990
2 37550  86.3752 304.3888 0002860 174.7842 185.3404 14.69914797889597
IRIDIUM 33 DEB          
1 37562U 97051XX  26161.21442012  .00003760  00000+0  80709-3 0  9999
2 37562  86.3736 325.2375 0022671 214.7239 324.1636 14.58245546889421
IRIDIUM 33 DEB          
1 37565U 97051YA  26156.66231083  .00003553  00000+0  86803-3 0  9990
2 37565  86.3433 293.3182 0012062 201.7183 158.3513 14.52328112683750
IRIDIUM 33 DEB          
1 38017U 97051YD  26151.25874829  .00011042  00000+0  25754-2 0  9993
2 38017  86.3325  92.1914 0075834 263.0011  96.2565 14.52915415638618
IRIDIUM 33 DEB          
1 38022U 97051YJ  26159.62689016  .00004048  00000+0  11983-2 0  9997
2 38022  86.2652 298.4458 0044401 178.2462 181.8902 14.42634180717578
IRIDIUM 33 DEB          
1 38028U 97051YQ  26161.05821194  .00001316  00000+0  35720-3 0  9999
2 38028  86.3234 282.2770 0025923 244.5817 115.2703 14.46720246680873
IRIDIUM 33 DEB          
1 38228U 97051ZC  26160.72977622  .00000666  00000+0  25790-3 0  9995
2 38228  86.2948 332.3719 0062699 336.0912  38.6743 14.27590870873356
IRIDIUM 33 DEB          
1 38241U 97051ZR  26160.59307363  .00002290  00000+0  51577-3 0  9991
2 38241  86.3204 271.6018 0004839 146.6269 213.5244 14.56016271628028
IRIDIUM 33 DEB          
1 38474U 97051AAB 26161.10300623  .00001892  00000+0  46623-3 0  9992
2 38474  86.3420 291.8442 0024899 201.1984 158.8192 14.51525334679197
IRIDIUM 33 DEB          
1 38477U 97051AAE 26155.96287521  .00003224  00000+0  24387-2 0  9996
2 38477  86.4105  41.0806 0399206  91.3480 273.3431 13.61980835570489
IRIDIUM 33 DEB          
1 39777U 97051AAJ 26159.52811251  .00009943  00000+0  19738-2 0  9997
2 39777  85.9587  88.3953 0054997 307.3692  52.2516 14.61130312627779
IRIDIUM 33 DEB          
1 39778U 97051AAK 26161.19562819  .00003226  00000+0  73284-3 0  9992
2 39778  86.3768 325.2411 0008962 129.8835 230.3163 14.55725895633026
IRIDIUM 33 DEB          
1 39781U 97051AAN 26158.33251734  .00012988  00000+0  47270-2 0  9999
2 39781  86.3804 185.0352 0173077  69.3880 309.3145 14.25082815106189
IRIDIUM 33 DEB          
1 40996U 97051ABJ 26157.61437758  .00063556  00000+0  36946-2 0  9996
2 40996  86.3466 278.1605 0005999 132.7965 240.6039 15.11791690651328
IRIDIUM 33 DEB          
1 40998U 97051ABL 26160.80509353  .00001369  00000+0  38091-3 0  9992
2 40998  86.3820 337.1397 0006902 187.0999 237.1219 14.45733225 92688
IRIDIUM 33 DEB          
1 46435U 97051ABN 26161.12153723  .00014751  00000+0  36949-2 0  9994
2 46435  86.2739 116.1819 0205328  47.5157 327.7811 14.39356759104922
IRIDIUM 33 DEB          
1 46734U 97051ABR 26156.63796024  .00003436  00000+0  10092-2 0  9992
2 46734  86.2632 286.0009 0041800 115.2383 260.7560 14.43037345655325
IRIDIUM 33 DEB          
1 46965U 97051ABX 26160.57239676  .00002525  00000+0  50232-3 0  9990
2 46965  86.3335 261.2774 0021244  80.7157 340.7182 14.61589795648794
IRIDIUM 33 DEB          
1 46972U 97051ACE 26159.74604375  .00001458  00000+0  36014-3 0  9993
2 46972  86.3895 322.7402 0007093 219.5382 201.9095 14.51464710641547
IRIDIUM 33 DEB          
1 46974U 97051ACG 26160.88760317  .00006336  00000+0  16139-2 0  9996
2 46974  86.2995  26.7783 0087175 313.0690  46.3237 14.48218673600986
